[{"OBJECT_NAME":"STARLINK-35492","OBJECT_ID":"2025-225S","EPOCH":"2026-03-09T12:08:43.736928","MEAN_MOTION":15.30212672,"ECCENTRICITY":0.00010603,"INCLINATION":53.1591,"RA_OF_ASC_NODE":166.2683,"ARG_OF_PERICENTER":123.8936,"MEAN_ANOMALY":236.2166,"EPHEMERIS_TYPE":0,"CLASSIFICATION_TYPE":"U","NORAD_CAT_ID":65926,"ELEMENT_SET_NO":999,"REV_AT_EPOCH":2438,"BSTAR":0.00080433706,"MEAN_MOTION_DOT":0.00023548,"MEAN_MOTION_DDOT":0},{"OBJECT_NAME":"SL-3 R\/B","OBJECT_ID":"1982-027B","EPOCH":"2026-03-09T22:44:40.208640","MEAN_MOTION":15.28335844,"ECCENTRICITY":0.00065199,"INCLINATION":81.188,"RA_OF_ASC_NODE":37.4466,"ARG_OF_PERICENTER":276.581,"MEAN_ANOMALY":83.4683,"EPHEMERIS_TYPE":0,"CLASSIFICATION_TYPE":"U","NORAD_CAT_ID":13121,"ELEMENT_SET_NO":999,"REV_AT_EPOCH":39859,"BSTAR":0.00030526741,"MEAN_MOTION_DOT":8.453e-5,"MEAN_MOTION_DDOT":0}]
